NORAD_CAT_ID,OBJECT_NAME,OBJECT_TYPE,EPOCH,MEAN_MOTION,ECCENTRICITY,INCLINATION,RA_OF_ASC_NODE,ARG_OF_PERICENTER,MEAN_ANOMALY,BSTAR,MEAN_MOTION_DOT,MEAN_MOTION_DDOT,TLE_LINE0,TLE_LINE1,TLE_LINE2,SEMIMAJOR_AXIS,PERIOD,APOGEE,PERIGEE,DECAYED
55781.0,STARLINK-5820,PAYLOAD,2023-12-26 14:17:51,14.98349048,0.0002602,70.0012,92.0547,272.4346,87.6515,-1.5098e-05,-2.73e-06,0.0,0 STARLINK-5820,1 55781U 23028AS  23360.59573362 -.00000273  00000-0 -15098-4 0  9996,2 55781  70.0012  92.0547 0002602 272.4346  87.6515 14.98349048 46083,6950.134,96.106,573.807,570.191,0.0
55781.0,STARLINK-5820,PAYLOAD,2023-12-26 15:54:00,14.9832778,0.0002737,70.0008,91.8863,260.9599,99.125,9.347e-06,1.9e-07,0.0,0 STARLINK-5820,1 55781U 23028AS  23360.66250468  .00000019  00000-0  93470-5 0  9990,2 55781  70.0008  91.8863 0002737 260.9599  99.1250 14.98327780 46091,6950.2,96.107,573.967,570.162,0.0
55781.0,STARLINK-5820,PAYLOAD,2023-12-27 11:07:36,14.98330276,0.0002846,69.9999,89.8634,265.9824,94.101,4.9384e-05,4.96e-06,0.0,0 STARLINK-5820,1 55781U 23028AS  23361.46362183  .00000496  00000-0  49384-4 0  9990,2 55781  69.9999  89.8634 0002846 265.9824  94.1010 14.98330276 46214,6950.192,96.107,574.035,570.079,0.0
55781.0,STARLINK-5820,PAYLOAD,2023-12-27 14:19:54,14.98313445,0.0003013,70.001,89.5287,289.4294,70.6539,-0.00016728,-2.087e-05,0.0,0 STARLINK-5820,1 55781U 23028AS  23361.59715885 -.00002087  00000-0 -16728-3 0  9990,2 55781  70.0010  89.5287 0003013 289.4294  70.6539 14.98313445 46237,6950.244,96.108,574.203,570.015,0.0
55781.0,STARLINK-5820,PAYLOAD,2023-12-27 15:56:00,14.98337123,0.0003074,70.0011,89.3602,285.643,74.4389,8.9654e-05,9.77e-06,0.0,0 STARLINK-5820,1 55781U 23028AS  23361.66389779  .00000977  00000-0  89654-4 0  9990,2 55781  70.0011  89.3602 0003074 285.6430  74.4389 14.98337123 46249,6950.171,96.107,574.172,569.899,0.0
55781.0,STARLINK-5820,PAYLOAD,2023-12-28 11:09:37,14.98329486,0.0002748,70.0006,87.3398,262.7805,97.3042,3.1689e-05,2.85e-06,0.0,0 STARLINK-5820,1 55781U 23028AS  23362.46502246  .00000285  00000-0  31689-4 0  9992,2 55781  70.0006  87.3398 0002748 262.7805  97.3042 14.98329486 46368,6950.194,96.107,573.969,570.15,0.0
55781.0,STARLINK-5820,PAYLOAD,2023-12-28 14:21:53,14.98331086,0.000277,70.0008,87.0039,262.8756,97.2088,5.3185e-05,5.42e-06,0.0,0 STARLINK-5820,1 55781U 23028AS  23362.59854065  .00000542  00000-0  53185-4 0  9996,2 55781  70.0008  87.0039 0002770 262.8756  97.2088 14.98331086 46380,6950.19,96.107,573.98,570.129,0.0
55781.0,STARLINK-5820,PAYLOAD,2023-12-28 15:58:01,14.98335275,0.000286,70.0005,86.8343,273.0682,87.015,0.00010069,1.109e-05,0.0,0 STARLINK-5820,1 55781U 23028AS  23362.66529758  .00001109  00000-0  10069-3 0  9995,2 55781  70.0005  86.8343 0002860 273.0682  87.0150 14.98335275 46396,6950.177,96.107,574.029,570.054,0.0
55781.0,STARLINK-5820,PAYLOAD,2023-12-29 11:11:38,14.98330012,0.000272,70.0006,84.8156,268.4961,91.5887,-8.6667e-06,-1.96e-06,0.0,0 STARLINK-5820,1 55781U 23028AS  23363.46642188 -.00000196  00000-0 -86667-5 0  9993,2 55781  70.0006  84.8156 0002720 268.4961  91.5887 14.98330012 46515,6950.193,96.107,573.948,570.167,0.0
55781.0,STARLINK-5820,PAYLOAD,2023-12-29 14:23:54,14.98330743,0.000287,70.0006,84.4789,274.2656,85.8175,8.8008e-06,1.2e-07,0.0,0 STARLINK-5820,1 55781U 23028AS  23363.59994091  .00000012  00000-0  88008-5 0  9996,2 55781  70.0006  84.4789 0002870 274.2656  85.8175 14.98330743 46534,6950.191,96.107,574.05,570.061,0.0
55781.0,STARLINK-5820,PAYLOAD,2023-12-30 11:13:39,14.98333092,0.0002549,70.0006,82.292,260.7228,99.3643,-4.3929e-05,-6.17e-06,0.0,0 STARLINK-5820,1 55781U 23028AS  23364.46781916 -.00000617  00000-0 -43929-4 0  9998,2 55781  70.0006  82.2920 0002549 260.7228  99.3643 14.98333092 46669,6950.183,96.107,573.82,570.277,0.0
55781.0,STARLINK-5820,PAYLOAD,2023-12-30 14:25:55,14.98331298,0.0002683,70.0006,81.955,262.9625,97.1229,-4.4308e-06,-1.46e-06,0.0,0 STARLINK-5820,1 55781U 23028AS  23364.60133889 -.00000146  00000-0 -44308-5 0  9994,2 55781  70.0006  81.9550 0002683 262.9625  97.1229 14.98331298 46682,6950.189,96.107,573.919,570.189,0.0
55781.0,STARLINK-5820,PAYLOAD,2023-12-31 11:15:40,14.98326548,0.0002828,70.0005,79.7666,264.9051,95.1785,-1.766e-05,-3.04e-06,0.0,0 STARLINK-5820,1 55781U 23028AS  23365.46922197 -.00000304  00000-0 -17660-4 0  9993,2 55781  70.0005  79.7666 0002828 264.9051  95.1785 14.98326548 46812,6950.204,96.107,574.034,570.103,0.0
55781.0,STARLINK-5820,PAYLOAD,2023-12-31 16:04:04,14.98327864,0.000279,70.0006,79.2616,264.5539,95.5302,-2.0594e-05,-3.39e-06,0.0,0 STARLINK-5820,1 55781U 23028AS  23365.66950147 -.00000339  00000-0 -20594-4 0  9999,2 55781  70.0006  79.2616 0002790 264.5539  95.5302 14.98327864 46842,6950.199,96.107,574.004,570.125,0.0
55781.0,STARLINK-5820,PAYLOAD,2024-01-01 11:17:41,14.98326857,0.0002741,70.0008,77.2422,260.7142,99.3707,-4.0453e-07,-9.8e-07,0.0,0 STARLINK-5820,1 55781U 23028AS  24001.47062248 -.00000098  00000-0 -40453-6 0  9992,2 55781  70.0008  77.2422 0002741 260.7142  99.3707 14.98326857 46966,6950.203,96.107,573.973,570.163,0.0
55781.0,STARLINK-5820,PAYLOAD,2024-01-01 14:29:57,14.98329034,0.0002885,70.0003,76.9045,265.6587,94.4242,-6.2231e-06,-1.67e-06,0.0,0 STARLINK-5820,1 55781U 23028AS  24001.60414116 -.00000167  00000-0 -62231-5 0  9996,2 55781  70.0003  76.9045 0002885 265.6587  94.4242 14.98329034 46986,6950.196,96.107,574.066,570.056,0.0
55781.0,STARLINK-5820,PAYLOAD,2024-01-02 11:19:42,14.98330496,0.0002961,70.0001,74.7159,266.242,93.8401,5.207e-05,5.28e-06,0.0,0 STARLINK-5820,1 55781U 23028AS  24002.47201815  .00000528  00000-0  52070-4 0  9990,2 55781  70.0001  74.7159 0002961 266.2420  93.8401 14.98330496 47114,6950.191,96.107,574.114,569.998,0.0
55781.0,STARLINK-5820,PAYLOAD,2024-01-02 14:31:58,14.98332423,0.0002941,70.0002,74.3795,265.8924,94.1899,7.1908e-05,7.65e-06,0.0,0 STARLINK-5820,1 55781U 23028AS  24002.60553619  .00000765  00000-0  71908-4 0  9991,2 55781  70.0002  74.3795 0002941 265.8924  94.1899 14.98332423 47138,6950.185,96.107,574.094,570.006,0.0
55781.0,STARLINK-5820,PAYLOAD,2024-01-03 11:21:44,14.98323579,0.0002796,70.0011,72.1911,272.8598,87.2241,-2.4017e-05,-3.79e-06,0.0,0 STARLINK-5820,1 55781U 23028AS  24003.47342638 -.00000379  00000-0 -24017-4 0  9996,2 55781  70.0011  72.1911 0002796 272.8598  87.2241 14.98323579 47267,6950.213,96.107,574.021,570.134,0.0
55781.0,STARLINK-5820,PAYLOAD,2024-01-03 14:34:00,14.98325167,0.000266,70.001,71.8553,270.2283,89.8571,-1.8471e-05,-3.13e-06,0.0,0 STARLINK-5820,1 55781U 23028AS  24003.60694563 -.00000313  00000-0 -18471-4 0  9993,2 55781  70.0010  71.8553 0002660 270.2283  89.8571 14.98325167 47288,6950.208,96.107,573.922,570.224,0.0
55781.0,STARLINK-5820,PAYLOAD,2024-01-04 03:23:04,14.98332392,0.0002972,70.0,70.5085,268.397,91.6848,-1.9543e-06,-1.16e-06,0.0,0 STARLINK-5820,1 55781U 23028AS  24004.14101946 -.00000116  00000-0 -19543-5 0  9994,2 55781  70.0000  70.5085 0002972 268.3970  91.6848 14.98332392 47365,6950.185,96.107,574.116,569.985,0.0
55781.0,STARLINK-5820,PAYLOAD,2024-01-04 14:36:00,14.9833477,0.0002959,70.0001,69.3293,272.0048,88.0772,7.1274e-05,7.58e-06,0.0,0 STARLINK-5820,1 55781U 23028AS  24004.60833530  .00000758  00000-0  71274-4 0  9994,2 55781  70.0001  69.3293 0002959 272.0048  88.0772 14.98334770 47432,6950.178,96.107,574.1,569.987,0.0
55781.0,STARLINK-5820,PAYLOAD,2024-01-05 05:01:13,14.98326835,0.0002462,70.001,67.8145,267.4048,92.6829,7.7714e-05,8.34e-06,0.0,0 STARLINK-5820,1 55781U 23028AS  24005.20917945  .00000834  00000-0  77714-4 0  9994,2 55781  70.0010  67.8145 0002462 267.4048  92.6829 14.98326835 47525,6950.203,96.107,573.779,570.357,0.0
55781.0,STARLINK-5820,PAYLOAD,2024-01-05 13:01:53,14.98338705,0.0002535,70.0007,66.9733,265.5713,94.5156,-0.00016692,-2.084e-05,0.0,0 STARLINK-5820,1 55781U 23028AS  24005.54297861 -.00002084  00000-0 -16692-3 0  9997,2 55781  70.0007  66.9733 0002535 265.5713  94.5156 14.98338705 47571,6950.166,96.106,573.793,570.269,0.0
55781.0,STARLINK-5820,PAYLOAD,2024-01-06 05:03:14,14.98330327,0.0002885,70.0001,65.2895,273.1027,86.9801,-4.7612e-05,-6.61e-06,0.0,0 STARLINK-5820,1 55781U 23028AS  24006.21058112 -.00000661  00000-0 -47612-4 0  9992,2 55781  70.0001  65.2895 0002885 273.1027  86.9801 14.98330327 47672,6950.192,96.107,574.062,570.052,0.0
55781.0,STARLINK-5820,PAYLOAD,2024-01-06 11:27:46,14.98327377,0.000291,70.0002,64.6167,269.1377,90.9448,-4.001e-05,-5.7e-06,0.0,0 STARLINK-5820,1 55781U 23028AS  24006.47762247 -.00000570  00000-0 -40010-4 0  9995,2 55781  70.0002  64.6167 0002910 269.1377  90.9448 14.98327377 47718,6950.201,96.107,574.089,570.043,0.0
55781.0,STARLINK-5820,PAYLOAD,2024-01-06 13:03:54,14.98328969,0.0002906,70.0003,64.4482,271.7682,88.3144,-5.2746e-05,-7.22e-06,0.0,0 STARLINK-5820,1 55781U 23028AS  24006.54438201 -.00000722  00000-0 -52746-4 0  9991,2 55781  70.0003  64.4482 0002906 271.7682  88.3144 14.98328969 47723,6950.196,96.107,574.081,570.041,0.0
55781.0,STARLINK-5820,PAYLOAD,2024-01-07 11:29:46,14.98332608,0.000289,70.0001,62.0919,260.8046,99.2786,4.9399e-05,4.97e-06,0.0,0 STARLINK-5820,1 55781U 23028AS  24007.47901552  .00000497  00000-0  49399-4 0  9995,2 55781  70.0001  62.0919 0002890 260.8046  99.2786 14.98332608 47868,6950.185,96.107,574.058,570.041,0.0
55781.0,STARLINK-5820,PAYLOAD,2024-01-07 13:05:55,14.98332259,0.0002867,70.0,61.9234,261.948,98.1353,4.7699e-05,4.76e-06,0.0,0 STARLINK-5820,1 55781U 23028AS  24007.54577573  .00000476  00000-0  47699-4 0  9993,2 55781  70.0000  61.9234 0002867 261.9480  98.1353 14.98332259 47874,6950.186,96.107,574.044,570.058,0.0
55781.0,STARLINK-5820,PAYLOAD,2024-01-08 11:31:47,14.98330513,0.0002924,70.0001,59.5669,262.9991,97.0836,4.6844e-05,4.66e-06,0.0,0 STARLINK-5820,1 55781U 23028AS  24008.48041552  .00000466  00000-0  46844-4 0  9990,2 55781  70.0001  59.5669 0002924 262.9991  97.0836 14.98330513 48014,6950.191,96.107,574.089,570.024,0.0
